[{"OBJECT_NAME":"ORS-5 SENSORSAT","OBJECT_ID":"2017-050A","EPOCH":"2026-03-09T15:38:19.109184","MEAN_MOTION":15.0051408,"ECCENTRICITY":0.0010549,"INCLINATION":0.0472,"RA_OF_ASC_NODE":167.086,"ARG_OF_PERICENTER":19.2794,"MEAN_ANOMALY":173.6211,"EPHEMERIS_TYPE":0,"CLASSIFICATION_TYPE":"U","NORAD_CAT_ID":42921,"ELEMENT_SET_NO":999,"REV_AT_EPOCH":46607,"BSTAR":0.00021756,"MEAN_MOTION_DOT":3.656e-5,"MEAN_MOTION_DDOT":0},{"OBJECT_NAME":"STARLINK-5562","OBJECT_ID":"2023-058V","EPOCH":"2026-03-09T22:09:34.119648","MEAN_MOTION":15.01261223,"ECCENTRICITY":0.00016906,"INCLINATION":97.604,"RA_OF_ASC_NODE":70.411,"ARG_OF_PERICENTER":53.5061,"MEAN_ANOMALY":306.6319,"EPHEMERIS_TYPE":0,"CLASSIFICATION_TYPE":"U","NORAD_CAT_ID":56336,"ELEMENT_SET_NO":999,"REV_AT_EPOCH":15816,"BSTAR":-2.509918e-6,"MEAN_MOTION_DOT":-9.1e-7,"MEAN_MOTION_DDOT":0}]
